[{"OBJECT_NAME":"ONEWEB-0250","OBJECT_ID":"2021-060B","EPOCH":"2026-03-09T21:59:24.758592","MEAN_MOTION":13.25827467,"ECCENTRICITY":0.00025959,"INCLINATION":87.9003,"RA_OF_ASC_NODE":246.6014,"ARG_OF_PERICENTER":83.7551,"MEAN_ANOMALY":276.3881,"EPHEMERIS_TYPE":0,"CLASSIFICATION_TYPE":"U","NORAD_CAT_ID":48968,"ELEMENT_SET_NO":999,"REV_AT_EPOCH":22706,"BSTAR":4.5056546e-5,"MEAN_MOTION_DOT":3.3e-7,"MEAN_MOTION_DDOT":0},{"OBJECT_NAME":"FENGYUN 1C DEB","OBJECT_ID":"1999-025DPG","EPOCH":"2026-03-09T10:14:49.399296","MEAN_MOTION":13.42027482,"ECCENTRICITY":0.03516247,"INCLINATION":98.8832,"RA_OF_ASC_NODE":40.5423,"ARG_OF_PERICENTER":201.7738,"MEAN_ANOMALY":315.902,"EPHEMERIS_TYPE":0,"CLASSIFICATION_TYPE":"U","NORAD_CAT_ID":35200,"ELEMENT_SET_NO":999,"REV_AT_EPOCH":67066,"BSTAR":0.00030511092,"MEAN_MOTION_DOT":2.1e-6,"MEAN_MOTION_DDOT":0}]
